{
  "sites": [
    {
      "name": "vietnam",
      "nameRu": "Вьетнам",
      "url": "//asia-vietnam.ru",
      "color": "#68D758",
      "capital": "Hanoi"
    },
    {
      "name": "nepal",
      "nameRu": "Непал",
      "url": "//asia-nepal.ru",
      "color": "#4DB2EC",
      "capital": "Katmandu"
    },
    {
      "name": "thailand",
      "nameRu": "Таиланд",
      "url": "//asia-thailand.ru",
      "color": "#BB86FC",
      "capital": "Bangkok"
    },
    {
      "name": "philippines",
      "nameRu": "Филиппины",
      "url": "//asia-philippines.ru",
      "color": "#03DAC6",
      "capital": "Manila"
    },
    {
      "name": "sri-lanka",
      "nameRu": "Шри-Ланка",
      "url": "//asia-sri-lanka.ru",
      "color": "#FF6633",
      "capital": "Colombo"
    },
    {
      "name": "cambodia",
      "nameRu": "Камбоджа",
      "url": "//asia-cambodia.ru",
      "color": "#FFCC99",
      "capital": "Phnom Penh"
    },
    {
      "name": "china",
      "nameRu": "Китай",
      "url": "//asia-china.ru",
      "color": "#FF0000",
      "capital": "Beijing"
    },
    {
      "name": "singapore",
      "nameRu": "Сингапур",
      "url": "//asia-singapore.ru",
      "color": "#FF0066",
      "capital": "Singapore"
    },
    {
      "name": "korea",
      "nameRu": "Корея",
      "url": "//asia-korea.ru",
      "color": "#FF99FF",
      "capital": "Seoul"
    },
    {
      "name": "japan",
      "nameRu": "Япония",
      "url": "//asia-japan.ru",
      "color": "#FFCCCC",
      "capital": "Tokyo"
    },
    {
      "name": "india",
      "nameRu": "Индия",
      "url": "//asia-india.ru",
      "color": "#FF9933",
      "capital": "New Delhi"
    },
    {
      "name": "malaysia",
      "nameRu": "Малайзия",
      "url": "//asia-malaysia.ru",
      "color": "#00CCFF",
      "capital": "Kuala Lumpur"
    },
    {
      "name": "myanmar",
      "nameRu": "Мьянма",
      "url": "//asia-myanmar.ru",
      "color": "#FFCC00",
      "capital": "Naypyidaw"
    },
    {
      "name": "laos",
      "nameRu": "Лаос",
      "url": "//asia-laos.ru",
      "color": "#99CCCC",
      "capital": "Vientiane"
    }
  ],
  "categories": {
    "Туризм": "Tourism",
    "Происшествия": "Incidents",
    "Еда": "Food",
    "Бизнес": "Business"
  }
}
